NORAD_CAT_ID,OBJECT_NAME,OBJECT_TYPE,EPOCH,MEAN_MOTION,ECCENTRICITY,INCLINATION,RA_OF_ASC_NODE,ARG_OF_PERICENTER,MEAN_ANOMALY,BSTAR,MEAN_MOTION_DOT,MEAN_MOTION_DDOT,TLE_LINE0,TLE_LINE1,TLE_LINE2,SEMIMAJOR_AXIS,PERIOD,APOGEE,PERIGEE,DECAYED
54789.0,STARLINK-5446,PAYLOAD,2024-02-10 12:29:06,15.08846347,0.0001416,53.2173,177.436,105.1163,254.9985,-3.8259e-05,-8.97e-06,0.0,0 STARLINK-5446,1 54789U 22175AH  24041.52021463 -.00000897  00000-0 -38259-4 0  9991,2 54789  53.2173 177.4360 0001416 105.1163 254.9985 15.08846347 63729,6917.861,95.437,540.706,538.746,0.0
54789.0,STARLINK-5446,PAYLOAD,2024-02-10 14:04:29,15.08846039,0.0001415,53.2169,177.1399,92.8323,267.2831,-2.4479e-05,-6.78e-06,0.0,0 STARLINK-5446,1 54789U 22175AH  24041.58645501 -.00000678  00000-0 -24479-4 0  9998,2 54789  53.2169 177.1399 0001415  92.8323 267.2831 15.08846039 65897,6917.862,95.437,540.706,538.748,0.0
54789.0,STARLINK-5446,PAYLOAD,2024-02-10 18:50:39,15.08841741,0.0001436,53.2177,176.2475,101.9308,258.1845,6.0099e-05,6.69e-06,0.0,0 STARLINK-5446,1 54789U 22175AH  24041.78517486  .00000669  00000-0  60099-4 0  9996,2 54789  53.2177 176.2475 0001436 101.9308 258.1845 15.08841741 65922,6917.875,95.437,540.733,538.747,0.0
54789.0,STARLINK-5446,PAYLOAD,2024-02-11 12:19:53,15.08840257,0.0001594,53.2172,172.9766,111.6658,248.4504,1.2332e-05,-9.2e-07,0.0,0 STARLINK-5446,1 54789U 22175AH  24042.51381694 -.00000092  00000-0  12332-4 0  9996,2 54789  53.2172 172.9766 0001594 111.6658 248.4504 15.08840257 63871,6917.88,95.438,540.847,538.642,0.0
54789.0,STARLINK-5446,PAYLOAD,2024-02-11 13:55:16,15.08841979,0.0001578,53.2172,172.6794,107.7189,252.3976,3.1019e-05,2.06e-06,0.0,0 STARLINK-5446,1 54789U 22175AH  24042.58005562  .00000206  00000-0  31019-4 0  9999,2 54789  53.2172 172.6794 0001578 107.7189 252.3976 15.08841979 66047,6917.874,95.437,540.831,538.648,0.0
54789.0,STARLINK-5446,PAYLOAD,2024-02-11 15:30:39,15.08852139,0.0001355,53.2172,172.3815,86.4809,273.6338,0.00013701,1.894e-05,0.0,0 STARLINK-5446,1 54789U 22175AH  24042.64628697  .00001894  00000-0  13701-3 0  9997,2 54789  53.2172 172.3815 0001355  86.4809 273.6338 15.08852139 63891,6917.843,95.437,540.646,538.771,0.0
54789.0,STARLINK-5446,PAYLOAD,2024-02-12 12:10:40,15.08844244,0.0001381,53.2169,168.5203,94.0993,266.0157,1.0298e-05,-1.24e-06,0.0,0 STARLINK-5446,1 54789U 22175AH  24043.50741472 -.00000124  00000-0  10298-4 0  9995,2 54789  53.2169 168.5203 0001381  94.0993 266.0157 15.08844244 64022,6917.867,95.437,540.688,538.777,0.0
54789.0,STARLINK-5446,PAYLOAD,2024-02-12 13:46:03,15.08844781,0.0001395,53.2173,168.2228,92.9919,267.1233,1.9397e-05,2.1e-07,0.0,0 STARLINK-5446,1 54789U 22175AH  24043.57365415  .00000021  00000-0  19397-4 0  9995,2 54789  53.2173 168.2228 0001395  92.9919 267.1233 15.08844781 66194,6917.866,95.437,540.696,538.766,0.0
54789.0,STARLINK-5446,PAYLOAD,2024-02-13 12:01:29,15.08812927,0.0001732,53.218,164.0674,110.5512,249.5666,0.00015145,2.121e-05,0.0,0 STARLINK-5446,1 54789U 22175AH  24044.50103343  .00002121  00000-0  15145-3 0  9998,2 54789  53.2180 164.0674 0001732 110.5512 249.5666 15.08812927 64179,6917.963,95.439,541.026,538.63,0.0
54789.0,STARLINK-5446,PAYLOAD,2024-02-13 13:36:52,15.08835672,0.000145,53.2173,163.77,98.8113,261.3043,-0.00011094,-2.053e-05,0.0,0 STARLINK-5446,1 54789U 22175AH  24044.56727024 -.00002053  00000-0 -11094-3 0  9997,2 54789  53.2173 163.7700 0001450  98.8113 261.3043 15.08835672 66343,6917.894,95.438,540.762,538.756,0.0
54789.0,STARLINK-5446,PAYLOAD,2024-02-13 18:23:01,15.08840803,0.000151,53.2175,162.8687,77.5408,282.5753,-5.1215e-05,-1.103e-05,0.0,0 STARLINK-5446,1 54789U 22175AH  24044.76598484 -.00001103  00000-0 -51215-4 0  9990,2 54789  53.2175 162.8687 0001510  77.5408 282.5753 15.08840803 64216,6917.878,95.438,540.788,538.698,0.0
54789.0,STARLINK-5446,PAYLOAD,2024-02-14 00:44:35,15.08816934,0.0002404,53.2177,161.6784,76.7626,283.3634,-0.00014926,-2.662e-05,0.0,0 STARLINK-5446,1 54789U 22175AH  24045.03096869 -.00002662  00000-0 -14926-3 0  9999,2 54789  53.2177 161.6784 0002404  76.7626 283.3634 15.08816934 64258,6917.951,95.439,541.479,538.153,0.0
54789.0,STARLINK-5446,PAYLOAD,2024-02-14 11:52:18,15.08803558,0.0001799,53.2172,159.6016,72.5318,287.5871,-0.00010041,-1.884e-05,0.0,0 STARLINK-5446,1 54789U 22175AH  24045.49466152 -.00001884  00000-0 -10041-3 0  9994,2 54789  53.2172 159.6016 0001799  72.5318 287.5871 15.08803558 64321,6917.992,95.44,541.101,538.612,0.0
54789.0,STARLINK-5446,PAYLOAD,2024-02-14 13:27:39,15.08839313,0.0001543,53.2175,159.3021,108.3497,251.7663,0.00020515,2.978e-05,0.0,0 STARLINK-5446,1 54789U 22175AH  24045.56086951  .00002978  00000-0  20515-3 0  9997,2 54789  53.2175 159.3021 0001543 108.3497 251.7663 15.08839313 66490,6917.882,95.438,540.815,538.68,0.0
54789.0,STARLINK-5446,PAYLOAD,2024-02-14 16:38:25,15.08838223,0.0001476,53.2174,158.7061,84.0733,276.0427,0.00019935,2.886e-05,0.0,0 STARLINK-5446,1 54789U 22175AH  24045.69335263  .00002886  00000-0  19935-3 0  9996,2 54789  53.2174 158.7061 0001476  84.0733 276.0427 15.08838223 64354,6917.886,95.438,540.772,538.73,0.0
54789.0,STARLINK-5446,PAYLOAD,2024-02-15 13:18:25,15.08854063,0.0001352,53.2169,154.8431,87.8899,272.2248,0.00021062,3.067e-05,0.0,0 STARLINK-5446,1 54789U 22175AH  24046.55446429  .00003067  00000-0  21062-3 0  9995,2 54789  53.2169 154.8431 0001352  87.8899 272.2248 15.08854063 66646,6917.837,95.437,540.638,538.767,0.0
54789.0,STARLINK-5446,PAYLOAD,2024-02-16 11:33:50,15.08837566,0.0001659,53.2157,150.6801,93.1009,267.0173,0.00031776,4.772e-05,0.0,0 STARLINK-5446,1 54789U 22175AH  24047.48182958  .00004772  00000-0  31776-3 0  9999,2 54789  53.2157 150.6801 0001659  93.1009 267.0173 15.08837566 64625,6917.888,95.438,540.901,538.605,0.0
54789.0,STARLINK-5446,PAYLOAD,2024-02-16 13:09:12,15.08857533,0.0001453,53.2158,150.3834,97.0916,263.0242,6.6171e-05,7.66e-06,0.0,0 STARLINK-5446,1 54789U 22175AH  24047.54806568  .00000766  00000-0  66171-4 0  9993,2 54789  53.2158 150.3834 0001453  97.0916 263.0242 15.08857533 66790,6917.827,95.436,540.697,538.687,0.0
54789.0,STARLINK-5446,PAYLOAD,2024-02-17 00:16:55,15.08850658,0.0001179,53.2155,148.3016,90.0339,270.0788,3.223e-06,-2.37e-06,0.0,0 STARLINK-5446,1 54789U 22175AH  24048.01174776 -.00000237  00000-0  32230-5 0  9999,2 54789  53.2155 148.3016 0001179  90.0339 270.0788 15.08850658 64706,6917.848,95.437,540.528,538.897,0.0
54789.0,STARLINK-5446,PAYLOAD,2024-02-17 13:00:00,15.08852525,0.0001554,53.2183,145.9232,90.251,269.8661,-0.00013818,-2.487e-05,0.0,0 STARLINK-5446,1 54789U 22175AH  24048.54166943 -.00002487  00000-0 -13818-3 0  9993,2 54789  53.2183 145.9232 0001554  90.2510 269.8661 15.08852525 66949,6917.842,95.437,540.782,538.632,0.0
54789.0,STARLINK-5446,PAYLOAD,2024-02-18 12:50:46,15.08842935,0.0001319,53.2177,141.4619,93.6669,266.4474,0.00010631,1.405e-05,0.0,0 STARLINK-5446,1 54789U 22175AH  24049.53526407  .00001405  00000-0  10631-3 0  9995,2 54789  53.2177 141.4619 0001319  93.6669 266.4474 15.08842935 64939,6917.871,95.437,540.649,538.824,0.0
54789.0,STARLINK-5446,PAYLOAD,2024-02-19 12:41:34,15.08831299,0.0001313,53.217,137.0036,80.2721,279.8419,0.00012976,1.777e-05,0.0,0 STARLINK-5446,1 54789U 22175AH  24050.52887214  .00001777  00000-0  12976-3 0  9998,2 54789  53.2170 137.0036 0001313  80.2721 279.8419 15.08831299 65086,6917.907,95.438,540.68,538.864,0.0
54789.0,STARLINK-5446,PAYLOAD,2024-02-19 22:13:53,15.08838036,0.0001334,53.2174,135.2196,86.5433,273.5712,4.7918e-05,4.75e-06,0.0,0 STARLINK-5446,1 54789U 22175AH  24050.92631064  .00000475  00000-0  47918-4 0  9991,2 54789  53.2174 135.2196 0001334  86.5433 273.5712 15.08838036 67309,6917.886,95.438,540.674,538.829,0.0
54789.0,STARLINK-5446,PAYLOAD,2024-02-20 12:32:22,15.08836119,0.0001602,53.2173,132.5467,100.875,259.2423,-6.0626e-05,-1.253e-05,0.0,0 STARLINK-5446,1 54789U 22175AH  24051.52247785 -.00001253  00000-0 -60626-4 0  9999,2 54789  53.2173 132.5467 0001602 100.8750 259.2423 15.08836119 67398,6917.892,95.438,540.865,538.649,0.0
54789.0,STARLINK-5446,PAYLOAD,2024-02-21 10:47:45,15.08841904,0.0001854,53.2193,128.3834,108.1474,251.972,9.4752e-05,1.22e-05,0.0,0 STARLINK-5446,1 54789U 22175AH  24052.44983145  .00001220  00000-0  94752-4 0  9997,2 54789  53.2193 128.3834 0001854 108.1474 251.9720 15.08841904 65377,6917.875,95.437,541.022,538.457,0.0
54789.0,STARLINK-5446,PAYLOAD,2024-02-21 12:23:08,15.08846505,0.0001414,53.2167,128.0833,92.2477,267.8677,0.00011801,1.591e-05,0.0,0 STARLINK-5446,1 54789U 22175AH  24052.51606750  .00001591  00000-0  11801-3 0  9993,2 54789  53.2167 128.0833 0001414  92.2477 267.8677 15.08846505 67542,6917.861,95.437,540.704,538.747,0.0
54789.0,STARLINK-5446,PAYLOAD,2024-02-21 21:55:27,15.08841078,0.0001446,53.2163,126.2991,95.5911,264.5246,5.806e-05,6.36e-06,0.0,0 STARLINK-5446,1 54789U 22175AH  24052.91351187  .00000636  00000-0  58060-4 0  9996,2 54789  53.2163 126.2991 0001446  95.5911 264.5246 15.08841078 67600,6917.877,95.437,540.742,538.742,0.0
54789.0,STARLINK-5446,PAYLOAD,2024-02-22 04:17:00,15.08833363,0.0001528,53.2171,125.1097,91.3419,268.7748,9.1498e-05,1.168e-05,0.0,0 STARLINK-5446,1 54789U 22175AH  24053.17847567  .00001168  00000-0  91498-4 0  9990,2 54789  53.2171 125.1097 0001528  91.3419 268.7748 15.08833363 65487,6917.901,95.438,540.823,538.709,0.0
54789.0,STARLINK-5446,PAYLOAD,2024-02-22 12:13:56,15.08835788,0.0001555,53.2174,123.6219,82.2563,277.8606,5.8064e-05,6.36e-06,0.0,0 STARLINK-5446,1 54789U 22175AH  24053.50967719  .00000636  00000-0  58064-4 0  9990,2 54789  53.2174 123.6219 0001555  82.2563 277.8606 15.08835788 67690,6917.893,95.438,540.834,538.683,0.0
54789.0,STARLINK-5446,PAYLOAD,2024-02-23 10:29:20,15.08841055,0.0001666,53.2172,119.4596,89.4087,270.7096,-7.489e-05,-1.48e-05,0.0,0 STARLINK-5446,1 54789U 22175AH  24054.43704089 -.00001480  00000-0 -74890-4 0  9997,2 54789  53.2172 119.4596 0001666  89.4087 270.7096 15.08841055 65677,6917.877,95.437,540.895,538.59,0.0
